[{"OBJECT_NAME":"OBJECT BE","OBJECT_ID":"2024-199BE","EPOCH":"2026-03-09T22:35:11.240448","MEAN_MOTION":15.34583634,"ECCENTRICITY":0.00126202,"INCLINATION":97.3163,"RA_OF_ASC_NODE":298.7137,"ARG_OF_PERICENTER":307.7021,"MEAN_ANOMALY":52.3078,"EPHEMERIS_TYPE":0,"CLASSIFICATION_TYPE":"U","NORAD_CAT_ID":61787,"ELEMENT_SET_NO":999,"REV_AT_EPOCH":12186,"BSTAR":0.00035348262,"MEAN_MOTION_DOT":0.00011799,"MEAN_MOTION_DDOT":0},{"OBJECT_NAME":"STARLINK-34605","OBJECT_ID":"2025-139P","EPOCH":"2026-03-09T12:07:50.499840","MEAN_MOTION":15.30141117,"ECCENTRICITY":8.127e-5,"INCLINATION":53.1583,"RA_OF_ASC_NODE":117.4173,"ARG_OF_PERICENTER":70.4883,"MEAN_ANOMALY":289.6206,"EPHEMERIS_TYPE":0,"CLASSIFICATION_TYPE":"U","NORAD_CAT_ID":64677,"ELEMENT_SET_NO":999,"REV_AT_EPOCH":4040,"BSTAR":0.00031299371,"MEAN_MOTION_DOT":8.905e-5,"MEAN_MOTION_DDOT":0}]
